[{"id": 1, "name": "Restoran Vegehop", "phone": "014649400", "address": "Vlaška ulica 79", "website": "vegehop.hr", "zipcode": 10000, "cityname": "Zagreb", "delivery": true, "latitude": 45.81462343, "longitude": 15.98823879, "opening_hours": "Mon-Sat 12:00-20:00"}, {"id": 2, "name": "Gajbica", "phone": "0915141274", "address": "Vlaška ulica 7", "website": "gajbica.eatbu.com", "zipcode": 10000, "cityname": "Zagreb", "delivery": true, "latitude": 45.81391498, "longitude": 15.97946271, "opening_hours": "Mon-Sat 11:00-18:00"}, {"id": 3, "name": "OAZA Joyful Kitchen", "phone": "0976602744", "address": "Ulica Pavla Radića 9", "website": "joyful-kitchen.com", "zipcode": 10000, "cityname": "Zagreb", "delivery": true, "latitude": 45.81434540, "longitude": 15.97565004, "opening_hours": "Mon-Fri 10:00-21:00,Sat 12:00-21:00"}, {"id": 4, "name": "BEKIND", "phone": "015534763", "address": "Ilica 75", "website": "bekind.hr", "zipcode": 10000, "cityname": "Zagreb", "delivery": false, "latitude": 45.81245345, "longitude": 15.96450714, "opening_hours": "Tue-Sat 09:00-22:00,Sun 09:00-16:00"}, {"id": 5, "name": "Zrno bio bistro", "phone": "014847540", "address": "Medulićeva ulica 20", "website": "zrnobiobistro.hr", "zipcode": 10000, "cityname": "Zagreb", "delivery": true, "latitude": 45.81122113, "longitude": 15.96667598, "opening_hours": "Mon-Sat 12:00-21:30"}, {"id": 6, "name": "Falafel, etc.", "phone": "012343945", "address": "Ulica Andrije Žaje 60", "website": "falafeletc.com.hr", "zipcode": 10000, "cityname": "Zagreb", "delivery": true, "latitude": 45.80695890, "longitude": 15.95334024, "opening_hours": "Mon-Sun 11:00-21:30"}, {"id": 7, "name": "Shambala", "phone": "0957618710", "address": "Iločka ulica 34", "website": "facebook.com/people/Shambala-Vegan-food-sweets-more", "zipcode": 10000, "cityname": "Zagreb", "delivery": true, "latitude": 45.79956603, "longitude": 15.95967074, "opening_hours": "Mon-Fri 11:00-18:00,Sat-Sun 11:00:16:00"}, {"id": 8, "name": "Simple Green by Jelena", "phone": "015561679", "address": "Zelinska Ulica 7", "website": "simplegreenbyjelena.com", "zipcode": 10000, "cityname": "Zagreb", "delivery": true, "latitude": 45.80106354, "longitude": 15.97246634, "opening_hours": "Mon-Sat 08:00-16:00"}, {"id": 9, "name": "Vege Fino za sve", "phone": "098777577", "address": "Ulica Lavoslava Ružičke 48", "website": "vegefinozasve.com", "zipcode": 10000, "cityname": "Zagreb", "delivery": true, "latitude": 45.79626824, "longitude": 15.96986333, "opening_hours": "Mon-Fri 10:00-18:00,Sun 12:00-18:00"}, {"id": 10, "name": "Barcode Mitra", "phone": "013770428", "address": "Zagrebačka cesta 113", "website": "barcodemitra.hr", "zipcode": 10000, "cityname": "Zagreb", "delivery": true, "latitude": 45.80673849, "longitude": 15.92470464, "opening_hours": "Mon-Sat 14:00-22:00"}, {"id": 11, "name": "Pandora Greenbox", "phone": "021236120", "address": "Obrov ulica 4", "website": "pandoragreenbox.com", "zipcode": 21000, "cityname": "Split", "delivery": false, "latitude": 43.50930416, "longitude": 16.43764950, "opening_hours": "Mon-Sun 08:30-12:00"}, {"id": 12, "name": "Upcafe", "phone": "0916210500", "address": "Ulica Domovinskog rata 29a", "website": "upcafe.hr", "zipcode": 21000, "cityname": "Split", "delivery": true, "latitude": 43.51692872, "longitude": 16.44540914, "opening_hours": "Mon-Sat 07:00-20:00,Sun 08:00-20:00"}, {"id": 13, "name": "The Botanist", "phone": "0924232296", "address": "Ulica Mihovila Pavlinovića 4", "website": "instagram.com/botanist_zadar", "zipcode": 23000, "cityname": "Zadar", "delivery": false, "latitude": 44.11643740, "longitude": 15.22593932, "opening_hours": "Mon-Sun 12:00-23:00"}, {"id": 14, "name": "Nishta", "phone": "020322088", "address": "Prijeko ulica bb", "website": "nishtarestaurant.com", "zipcode": 20000, "cityname": "Dubrovnik", "delivery": false, "latitude": 42.67534972, "longitude": 18.10592518, "opening_hours": "Mon-Sat 11:30-22:00"}, {"id": 15, "name": "BioMania Bistro Bol", "phone": "0919362276", "address": "Rudina 10", "website": "biomania.hr", "zipcode": 21420, "cityname": "Bol", "delivery": false, "latitude": 43.26175996, "longitude": 16.65493408, "opening_hours": "Mon-Thu 13:00-21:00,Sat 13:00-21:00,Sun 10:00-22:00"}]
